{
    "links": {
        "self": "http://www.neowsapp.com/rest/v1/neo/3770275?api_key=iIulBulltgU6a56xZRHN4H3l9WmuAYTsLGpBGhQ2"
    },
    "id": "3770275",
    "neo_reference_id": "3770275",
    "name": "(2017 DZ108)",
    "designation": "2017 DZ108",
    "nasa_jpl_url": "http://ssd.jpl.nasa.gov/sbdb.cgi?sstr=3770275",
    "absolute_magnitude_h": 26.2,
    "estimated_diameter": {
        "kilometers": {
            "estimated_diameter_min": 0.0152951935,
            "estimated_diameter_max": 0.0342010925
        },
        "meters": {
            "estimated_diameter_min": 15.2951935344,
            "estimated_diameter_max": 34.201092472
        },
        "miles": {
            "estimated_diameter_min": 0.0095039897,
            "estimated_diameter_max": 0.021251567
        },
        "feet": {
            "estimated_diameter_min": 50.1810827555,
            "estimated_diameter_max": 112.2083122258
        }
    },
    "is_potentially_hazardous_asteroid": false,
    "close_approach_data": [
        {
            "close_approach_date": "2017-03-06",
            "close_approach_date_full": "2017-Mar-06 10:42",
            "epoch_date_close_approach": 1488796920000,
            "relative_velocity": {
                "kilometers_per_second": "5.9688114522",
                "kilometers_per_hour": "21487.7212280448",
                "miles_per_hour": "13351.6343375037"
            },
            "miss_distance": {
                "astronomical": "0.0284239209",
                "lunar": "11.0569052301",
                "kilometers": "4252158.023688483",
                "miles": "2642168.4769397454"
            },
            "orbiting_body": "Earth"
        },
        {
            "close_approach_date": "2079-01-31",
            "close_approach_date_full": "2079-Jan-31 14:08",
            "epoch_date_close_approach": 3442399680000,
            "relative_velocity": {
                "kilometers_per_second": "15.5967705265",
                "kilometers_per_hour": "56148.3738953514",
                "miles_per_hour": "34888.4159906977"
            },
            "miss_distance": {
                "astronomical": "0.3370233239",
                "lunar": "131.1020729971",
                "kilometers": "50417971.395760093",
                "miles": "31328274.7139235634"
            },
            "orbiting_body": "Earth"
        }
    ],
    "orbital_data": {
        "orbit_id": "7",
        "orbit_determination_date": "2018-02-10 07:08:46",
        "first_observation_date": "2017-02-24",
        "last_observation_date": "2017-03-09",
        "data_arc_in_days": 13,
        "observations_used": 40,
        "orbit_uncertainty": "7",
        "minimum_orbit_intersection": ".025635",
        "jupiter_tisserand_invariant": "4.108",
        "epoch_osculation": "2459000.5",
        "eccentricity": ".4026934831439801",
        "semi_major_axis": "1.697619356621053",
        "inclination": "4.374674003109582",
        "ascending_node_longitude": "340.2060359216409",
        "orbital_period": "807.9024118205923",
        "perihelion_distance": "1.013999104850679",
        "perihelion_argument": "195.6605448321524",
        "aphelion_distance": "2.381239608391427",
        "perihelion_time": "2458635.416381072547",
        "mean_anomaly": "162.6806664900378",
        "mean_motion": ".4455983726905172",
        "equinox": "J2000",
        "orbit_class": {
            "orbit_class_type": "APO",
            "orbit_class_description": "Near-Earth asteroid orbits which cross the Earth’s orbit similar to that of 1862 Apollo",
            "orbit_class_range": "a (semi-major axis) > 1.0 AU; q (perihelion) < 1.017 AU"
        }
    },
    "is_sentry_object": false
}